EUTELSAT 7A             
1 28187U 04008A   25351.51093623  .00000123  00000+0  00000+0 0  9997
2 28187   5.3696  74.1983 0000851 181.6621 235.2729  1.00269043 79537
EUTELSAT 174A           
1 28924U 05052A   25351.87507471  .00000031  00000+0  00000+0 0  9994
2 28924   3.7596  78.7935 0005804 190.6758 306.3369  1.00269313 50515
EUTELSAT HOTBIRD 13B    
1 29270U 06032A   25351.77577704  .00000180  00000+0  00000+0 0  9998
2 29270   1.1931  84.3307 0003523 177.5391 137.1359  1.00272576 45488
EUTELSAT HOTBIRD 13C    
1 33459U 08065A   25351.75931028 -.00000260  00000+0  00000+0 0  9991
2 33459   2.4838  81.3652 0003474 179.2349  49.0725  1.00272767 45524
EUTELSAT 36B            
1 36101U 09065A   25351.86294786  .00000137  00000+0  00000+0 0  9996
2 36101   0.0467  29.1227 0005638 236.7236 182.0503  1.00269379 58890
EUTELSAT KA-SAT 9A      
1 37258U 10069A   25351.34305860  .00000086  00000+0  00000+0 0  9998
2 37258   0.0490 339.6267 0002162 200.3213  38.7869  1.00271212 42180
EUTELSAT 7 WEST A       
1 37816U 11051A   25351.76780366 -.00000035  00000+0  00000+0 0  9999
2 37816   0.0621 353.4900 0005261 235.2754 126.9773  1.00272051 52057
EUTELSAT 16A            
1 37836U 11057A   25351.77248369  .00000130  00000+0  00000+0 0  9995
2 37836   0.0630 331.6836 0006168 298.6095 110.4755  1.00274602  5503
